METHANESAT              
1 59101U 24043D   25309.26698312  .00003333  00000+0  29902-3 0  9991
2 59101  97.8186  74.8759 0011349  42.2770 317.9324 14.96400502 91142
GOSAT-GW (IBUKI GW)     
1 64694U 25141A   25309.35110350  .00001196  00000+0  21917-3 0  9998
2 64694  98.0369 245.5537 0001411  81.0421 279.0943 14.67567911 19012
GHGSAT-C1               
1 46278U 20061G   25309.25807382  .00024666  00000+0  34894-3 0  9994
2 46278  97.2368  24.3169 0002834 129.7408 230.4098 15.56507084288484
GHGSAT-C12              
1 64529U 25135B   25309.19617095  .00005535  00000+0  27401-3 0  9993
2 64529  97.4602  61.5826 0004265 221.3248 138.7664 15.18188767 20811
GHGSAT-C13              
1 64548U 25135W   25309.24222330  .00004275  00000+0  20740-3 0  9993
2 64548  97.4626  61.8664 0002060 130.7506 229.3908 15.19028069 20831
GHGSAT-C2               
1 47509U 21006DA  25309.08048632  .00007067  00000+0  21472-3 0  9992
2 47509  97.2506 355.2153 0003917 245.5465 114.5370 15.34360004265449
GHGSAT-C3               
1 52737U 22057F   25309.29600661  .00008006  00000+0  27363-3 0  9996
2 52737  97.6316  82.6248 0006517 185.0022 175.1155 15.30548115191240
GHGSAT-C4               
1 52746U 22057Q   25309.31486201  .00009059  00000+0  30922-3 0  9995
2 52746  97.6244  81.7000 0007010 171.2394 188.8970 15.30543084191251
GHGSAT-C5               
1 52744U 22057N   25309.33182465  .00009083  00000+0  31011-3 0  9997
2 52744  97.6404  83.9749 0007562 182.4400 177.6805 15.30531435191255
GHGSAT-C6               
1 56204U 23054AC  25309.27518891  .00015568  00000+0  32662-3 0  9997
2 56204  97.3175 211.1588 0010335 126.7609 233.4590 15.45413151143789
GHGSAT-C7               
1 56209U 23054AH  25309.29086278  .00012054  00000+0  26491-3 0  9993
2 56209  97.3133 210.5075 0010419 121.9149 238.3114 15.44101336143774
GHGSAT-C8               
1 56186U 23054J   25309.24880664  .00013443  00000+0  28240-3 0  9990
2 56186  97.3141 210.5752 0007268 138.9571 221.2226 15.45438338143764
SENTINEL-5P             
1 42969U 17064A   25309.26803742  .00000094  00000+0  65707-4 0  9990
2 42969  98.7721 248.1959 0001051  77.9055 282.2238 14.19502370417791
ENMAP                   
1 52159U 22033C   25309.29632618  .00000709  00000+0  11291-3 0  9990
2 52159  97.9797  29.7509 0000995  90.7161 269.4162 14.74975128193653
PRISMA                  
1 44072U 19015A   25309.30138218  .00001225  00000+0  15484-3 0  9992
2 44072  97.8738  22.2909 0001389  96.0171 264.1201 14.83636582358851
SENTINEL-2A             
1 40697U 15028A   25309.29861073  .00000178  00000+0  84743-4 0  9992
2 40697  98.5731  22.3591 0001101  93.7323 266.3986 14.30819980541714
SENTINEL-2B             
1 42063U 17013A   25309.29137927  .00000191  00000+0  89509-4 0  9991
2 42063  98.5664  22.2781 0001023 102.6632 257.4666 14.30826171452621
SENTINEL-2C             
1 60989U 24157A   25309.18667713  .00000162  00000+0  78368-4 0  9993
2 60989  98.5642  22.2299 0000954 101.3703 258.7587 14.30820842 60951
LANDSAT 8               
1 39084U 13008A   25309.30017802  .00000519  00000+0  12533-3 0  9997
2 39084  98.2114  17.9177 0001243  88.5469 271.5872 14.57113118665295
LANDSAT 9               
1 49260U 21088A   25309.19720833  .00000540  00000+0  12999-3 0  9993
2 49260  98.2137  17.8439 0001276  83.4523 276.6821 14.57099971218382
